[{"OBJECT_NAME":"VSP RF B1","OBJECT_ID":"2024-043AR","EPOCH":"2026-03-09T22:40:29.479296","MEAN_MOTION":15.26694159,"ECCENTRICITY":0.00102608,"INCLINATION":97.5446,"RA_OF_ASC_NODE":204.7052,"ARG_OF_PERICENTER":220.7435,"MEAN_ANOMALY":139.3037,"EPHEMERIS_TYPE":0,"CLASSIFICATION_TYPE":"U","NORAD_CAT_ID":59137,"ELEMENT_SET_NO":999,"REV_AT_EPOCH":11187,"BSTAR":0.00024406819,"MEAN_MOTION_DOT":6.341e-5,"MEAN_MOTION_DDOT":0},{"OBJECT_NAME":"STARLINK-35582","OBJECT_ID":"2025-265X","EPOCH":"2026-03-09T13:29:26.996928","MEAN_MOTION":15.27598737,"ECCENTRICITY":0.00036595,"INCLINATION":43.0013,"RA_OF_ASC_NODE":278.6784,"ARG_OF_PERICENTER":295.6523,"MEAN_ANOMALY":64.3951,"EPHEMERIS_TYPE":0,"CLASSIFICATION_TYPE":"U","NORAD_CAT_ID":66537,"ELEMENT_SET_NO":999,"REV_AT_EPOCH":1709,"BSTAR":0.0010915223,"MEAN_MOTION_DOT":0.00029917,"MEAN_MOTION_DDOT":0}]
